[
    {
        "Altitude(m)": 605459.0036207302,
        "Argument of Periapsis(deg)": 0.0,
        "Eccentricity": 0.0,
        "Inclination(deg)": 60.0,
        "Latitude(deg)": 27.98813225334304,
        "Longitude(deg)": -102.20139971950768,
        "Mean Anomaly(deg)": -327.2727,
        "RAAN(deg)": 340.00000000000006,
        "Satellite Name": "Test1 1498",
        "Satellite Number": 1498,
        "Semi-Major Axis(m)": 6980739.136638005,
        "Time(s)": 0
    },
    {
        "Altitude(m)": 605535.7942821864,
        "Argument of Periapsis(deg)": 0.00010418945913296404,
        "Eccentricity": 0.0,
        "Inclination(deg)": 60.0,
        "Latitude(deg)": 28.501261587960297,
        "Longitude(deg)": -101.84445457948397,
        "Mean Anomaly(deg)": -326.65259385453817,
        "RAAN(deg)": 339.99957995086027,
        "Satellite Name": "Test1 1498",
        "Satellite Number": 1498,
        "Semi-Major Axis(m)": 6980739.136638005,
        "Time(s)": 10
    }
]